ONEWEB-0520             
1 54138U 22138AB  26028.85439602  .00000046  00000+0  82340-4 0  9992
2 54138  87.9253 332.6922 0001472  75.3898 284.7398 13.19726967158442
ONEWEB-0521             
1 54139U 22138AC  26028.88756553  .00000012  00000+0 -24899-5 0  9993
2 54139  87.9255 332.6690 0001976  76.7306 283.4047 13.19726939158395
ONEWEB-0522             
1 54140U 22138AD  26028.86701858  .00000081  00000+0  17059-3 0  9994
2 54140  87.9255 332.6742 0001608  75.3511 284.7800 13.19727845158433
ONEWEB-0523             
1 54141U 22138AE  26028.71375165  .00000572  00000+0  13747-2 0  9991
2 54141  87.9229 302.2693 0002379  88.5562 271.5844 13.20776921160897
ONEWEB-0524             
1 54142U 22138AF  26028.70269184  .00000089  00000+0  18810-3 0  9994
2 54142  87.9222 302.2733 0001843 109.5519 250.5813 13.20772943160890
ONEWEB-0525             
1 54143U 22138AG  26028.88598483  .00000026  00000+0  33005-4 0  9996
2 54143  87.9243 332.6885 0001414  78.6078 281.5213 13.19726665158454
ONEWEB-0526             
1 54144U 22138AH  26028.84333772  .00000040  00000+0  68516-4 0  9992
2 54144  87.9251 332.6886 0001670  80.0427 280.0894 13.19727396158422
ONEWEB-0529             
1 54145U 22138AJ  26028.84649902  .00000056  00000+0  10776-3 0  9999
2 54145  87.9244 332.7097 0001508  79.2829 280.8473 13.19726983158440
